     2.11           N: GPS NAV DATA                         RINEX VERSION / TYPE
teqc  2016Apr1      IGN                 20231201 22:12:06UTCPGM / RUN BY / DATE
    18                                                      LEAP SECONDS
    2.7940D-08  7.4506D-09 -1.1921D-07  1.1921D-07          ION ALPHA
    1.4541D+05 -1.8022D+05  0.0000D+00  1.3107D+05          ION BETA
   -9.313225746155D-10-8.881784197001D-16    61440     2291 DELTA-UTC: A0,A1,T,W
                                                            END OF HEADER
21 23 12  1 13 59 44.0 1.427829265594D-04-1.023181539495D-12 0.000000000000D+00
    1.800000000000D+01 5.737500000000D+01 4.473043463072D-09 2.391383098888D+00
    2.874061465263D-06 2.498547185678D-02 1.197680830956D-06 5.153753564835D+03
    4.823840000000D+05 2.607703208923D-07-1.095662024916D+00 3.147870302200D-07
    9.617290996030D-01 3.545312500000D+02-6.769429468309D-01-8.102123200238D-09
   -8.786080261224D-11 1.000000000000D+00 2.290000000000D+03 0.000000000000D+00
    2.000000000000D+00 0.000000000000D+00-1.024454832077D-08 1.800000000000D+01
    4.752180000000D+05 4.000000000000D+00
15 23 12  1 14  0  0.0 1.025977544487D-04 3.751665644813D-12 0.000000000000D+00
    8.400000000000D+01-5.687500000000D+01 5.162358096555D-09 1.362206052984D+00
   -3.051012754440D-06 1.546074310318D-02 9.560957551003D-06 5.153577878952D+03
    4.824000000000D+05-3.259629011154D-07 9.402382288334D-01-2.104789018631D-07
    9.337440326555D-01 1.859062500000D+02 1.276496368637D+00-8.294988695923D-09
    3.621579425239D-10 1.000000000000D+00 2.290000000000D+03 0.000000000000D+00
    2.000000000000D+00 0.000000000000D+00-1.024454832077D-08 8.400000000000D+01
    4.752300000000D+05
19 23 12  1 14  0  0.0 4.064897075295D-04 5.229594535194D-12 0.000000000000D+00
    9.100000000000D+01 1.013125000000D+02 4.010524357057D-09-1.803804675362D+00
    5.375593900681D-06 9.367723250762D-03 7.344409823418D-06 5.153670909882D+03
    4.824000000000D+05-1.899898052216D-07-1.948704661565D+00 1.303851604462D-08
    9.706624571303D-01 2.452187500000D+02 2.453291338689D+00-7.861398643172D-09
    8.857511946125D-11 1.000000000000D+00 2.290000000000D+03 0.000000000000D+00
    2.000000000000D+00 0.000000000000D+00-1.536682248116D-08 9.100000000000D+01
    4.752300000000D+05
 5 23 12  1 14  0  0.0-1.524724066257D-04-1.477928890381D-12 0.000000000000D+00
    4.000000000000D+01-9.965625000000D+01 4.231604844307D-09 2.718170658147D+00
   -5.241483449936D-06 5.850132089108D-03 5.483627319336D-06 5.153771200180D+03
    4.824000000000D+05 2.048909664154D-08-6.856663390409D-03-8.568167686462D-08
    9.691230167322D-01 2.795000000000D+02 1.237777510402D+00-7.862827722249D-09
   -2.071514834667D-11 1.000000000000D+00 2.290000000000D+03 0.000000000000D+00
    2.000000000000D+00 0.000000000000D+00-1.117587089539D-08 4.000000000000D+01
    4.752300000000D+05
24 23 12  1 14  0  0.0-3.838469274342D-04-8.526512829121D-12 0.000000000000D+00
    9.200000000000D+01 1.006250000000D+01 5.614876563698D-09 5.844270961001D-01
    6.891787052155D-07 1.493096095510D-02 6.310641765594D-06 5.153617694855D+03
    4.824000000000D+05-1.452863216400D-07 2.041975837381D+00 1.396983861923D-07
    9.335420899809D-01 2.437187500000D+02 9.480103585624D-01-8.646074078911D-09
   -1.785788639359D-12 1.000000000000D+00 2.290000000000D+03 0.000000000000D+00
    2.000000000000D+00 0.000000000000D+00 2.328306436539D-09 9.200000000000D+01
    4.752300000000D+05
14 23 12  1 14  0  0.0 2.587484195828D-04 1.068656274583D-11 0.000000000000D+00
    2.170000000000D+02 2.050000000000D+01 4.769127315285D-09-1.174369380193D+00
    1.035630702972D-06 3.726574359462D-03 8.642673492432D-06 5.153676078796D+03
    4.824000000000D+05 3.352761268616D-08-3.073854278552D+00-1.341104507446D-07
    9.475134594188D-01 2.095625000000D+02-2.954285738545D+00-7.948902869259D-09
   -5.068068187342D-10 1.000000000000D+00 2.290000000000D+03 0.000000000000D+00
    2.000000000000D+00 0.000000000000D+00-7.916241884232D-09 9.850000000000D+02
    4.752300000000D+05
20 23 12  1 14  0  0.0 3.988444805145D-04-1.932676241267D-12 0.000000000000D+00
    9.300000000000D+01-8.771875000000D+01 4.664836961155D-09 1.031522083104D+00
   -4.746019840240D-06 4.076073295437D-03 4.583969712257D-06 5.153668046951D+03
    4.824000000000D+05-3.166496753693D-08-1.325336968347D-01 3.911554813385D-08
    9.516050277005D-01 2.870312500000D+02-2.743137840667D+00-8.243557836352D-09
   -6.250260031759D-11 1.000000000000D+00 2.290000000000D+03 0.000000000000D+00
    2.000000000000D+00 0.000000000000D+00-8.381903171539D-09 9.300000000000D+01
    4.752300000000D+05
30 23 12  1 14  0  0.0-4.623099230230D-04 4.206412995700D-12 0.000000000000D+00
    1.500000000000D+01 1.812500000000D+00 5.421654236670D-09-5.499646945685D-01
    3.911554813385D-08 6.604314199649D-03 6.154179573059D-06 5.153721349716D+03
    4.824000000000D+05 3.725290298462D-08 2.139226191335D+00 9.313225746155D-08
    9.350911022521D-01 2.455000000000D+02-2.553084902577D+00-8.392849970562D-09
    1.535778275386D-11 1.000000000000D+00 2.290000000000D+03 0.000000000000D+00
    2.000000000000D+00 0.000000000000D+00 3.725290298462D-09 1.500000000000D+01
    4.752300000000D+05
23 23 12  1 14  0  0.0 1.083603128791D-04 6.707523425575D-12 0.000000000000D+00
    7.900000000000D+01-1.057500000000D+02 4.099813821767D-09-6.880554539629D-01
   -5.476176738739D-06 3.886187216267D-03 5.660578608513D-06 5.153698839188D+03
    4.824000000000D+05 3.725290298462D-08 1.143702039781D-02-1.303851604462D-08
    9.769666187868D-01 2.769062500000D+02-3.024218582866D+00-7.922472455846D-09
   -1.000041629368D-11 1.000000000000D+00 2.290000000000D+03 0.000000000000D+00
    2.000000000000D+00 0.000000000000D+00-8.381903171539D-09 5.910000000000D+02
    4.752300000000D+05
22 23 12  1 14  0  0.0 7.387576624751D-05-6.934897101019D-12 0.000000000000D+00
    3.600000000000D+01 2.940625000000D+01 4.283035703878D-09 2.966212254258D+00
    1.627951860428D-06 1.492312178016D-02 8.983537554741D-06 5.153726003647D+03
    4.824000000000D+05 1.303851604462D-07-3.010894414238D+00 1.117587089539D-07
    9.630646706635D-01 2.063125000000D+02-1.159897177825D+00-7.503526688879D-09
   -5.493085986075D-10 1.000000000000D+00 2.290000000000D+03 0.000000000000D+00
    2.000000000000D+00 0.000000000000D+00-1.117587089539D-08 3.600000000000D+01
    4.752300000000D+05
12 23 12  1 14  0  0.0-4.528686404228D-04-3.979039320257D-12 0.000000000000D+00
    6.600000000000D+01 2.918750000000D+01 4.451614188383D-09-1.134028480815D+00
    1.516193151474D-06 8.765478036366D-03 8.665025234222D-06 5.153751495361D+03
    4.824000000000D+05-9.499490261078D-08-3.032244539122D+00 2.272427082062D-07
    9.641909946994D-01 2.149375000000D+02 1.397134733321D+00-7.903543597365D-09
   -5.264504943092D-10 1.000000000000D+00 2.290000000000D+03 0.000000000000D+00
    2.000000000000D+00 0.000000000000D+00-1.257285475731D-08 6.600000000000D+01
    4.767000000000D+05
18 23 12  1 14  0  0.0-4.945197142661D-04-1.045918907039D-11 0.000000000000D+00
    3.400000000000D+01 1.793750000000D+01 4.276963672112D-09 3.245865536585D-01
    9.816139936447D-07 3.833302645944D-03 1.585111021996D-06 5.153642822266D+03
    4.824000000000D+05 1.192092895508D-07-9.884883904177D-01 1.862645149231D-08
    9.742816798855D-01 3.553437500000D+02-3.029035309399D+00-8.231771708722D-09
    1.032185864558D-10 1.000000000000D+00 2.290000000000D+03 0.000000000000D+00
    2.000000000000D+00 0.000000000000D+00-8.381903171539D-09 2.900000000000D+02
    4.752300000000D+05
27 23 12  1 14  0  0.0-7.736822590232D-05-5.002220859751D-12 0.000000000000D+00
    6.100000000000D+01 1.205625000000D+02 4.050525863518D-09 2.489384983117D+00
    6.068497896194D-06 1.190059026703D-02 8.031725883484D-06 5.153676460266D+03
    4.824000000000D+05-5.774199962616D-08-2.060168114614D+00-2.104789018631D-07
    9.648645177943D-01 2.257187500000D+02 7.424466164874D-01-7.713892743167D-09
   -3.571577341961D-11 1.000000000000D+00 2.290000000000D+03 0.000000000000D+00
    2.000000000000D+00 0.000000000000D+00 1.862645149231D-09 6.100000000000D+01
    4.752180000000D+05 4.000000000000D+00
10 23 12  1 14  0  0.0-6.357440724969D-05-1.591615728103D-12 0.000000000000D+00
    2.900000000000D+01-1.206875000000D+02 3.865518157204D-09-1.864201896337D+00
   -6.331130862236D-06 9.150819969364D-03 5.772337317467D-06 5.153694021225D+03
    4.824000000000D+05 8.381903171539D-08 3.954960552553D-02-4.284083843231D-08
    9.818285173044D-01 2.744062500000D+02-2.418344883897D+00-7.739250942295D-09
    7.178870457341D-11 1.000000000000D+00 2.290000000000D+03 0.000000000000D+00
    2.000000000000D+00 0.000000000000D+00 2.328306436539D-09 2.900000000000D+01
    4.752180000000D+05 4.000000000000D+00
32 23 12  1 14  0  0.0-5.918648093939D-04-4.092726157978D-12 0.000000000000D+00
    8.900000000000D+01-5.150000000000D+01 4.378396663510D-09 3.132610658425D+00
   -2.650544047356D-06 7.172436569817D-03 9.907409548759D-06 5.153607395172D+03
    4.824000000000D+05-7.450580596924D-09 1.077466675555D+00-1.154839992523D-07
    9.605640272559D-01 1.868437500000D+02-2.219627340960D+00-7.668533710924D-09
    4.443042213399D-10 1.000000000000D+00 2.290000000000D+03 0.000000000000D+00
    2.000000000000D+00 0.000000000000D+00 4.656612873077D-10 8.900000000000D+01
    4.765380000000D+05 4.000000000000D+00
29 23 12  1 14  0  0.0-6.100302562118D-04 2.273736754432D-13 0.000000000000D+00
    8.600000000000D+01 1.073437500000D+02 3.978737158944D-09 2.320790411219D+00
    5.694106221199D-06 2.516496344469D-03 6.850808858871D-06 5.153681648254D+03
    4.824000000000D+05-3.539025783539D-08-1.978579698712D+00 7.450580596924D-09
    9.738891277627D-01 2.558750000000D+02 2.562874810343D+00-7.733536418548D-09
   -4.571618997710D-11 1.000000000000D+00 2.290000000000D+03 0.000000000000D+00
    2.000000000000D+00 0.000000000000D+00-1.024454832077D-08 8.600000000000D+01
    4.752180000000D+05 4.000000000000D+00
